[{"OBJECT_NAME":"STARLINK-30888","OBJECT_ID":"2023-177V","EPOCH":"2026-03-09T04:15:24.711840","MEAN_MOTION":15.26740275,"ECCENTRICITY":0.00027351,"INCLINATION":43.003,"RA_OF_ASC_NODE":353.0914,"ARG_OF_PERICENTER":264.344,"MEAN_ANOMALY":95.71,"EPHEMERIS_TYPE":0,"CLASSIFICATION_TYPE":"U","NORAD_CAT_ID":58370,"ELEMENT_SET_NO":999,"REV_AT_EPOCH":12816,"BSTAR":5.4599292e-5,"MEAN_MOTION_DOT":1.205e-5,"MEAN_MOTION_DDOT":0},{"OBJECT_NAME":"CZ-6A DEB","OBJECT_ID":"2022-151ME","EPOCH":"2026-03-09T17:07:50.636064","MEAN_MOTION":15.20556855,"ECCENTRICITY":0.00283971,"INCLINATION":98.6182,"RA_OF_ASC_NODE":149.2426,"ARG_OF_PERICENTER":178.5587,"MEAN_ANOMALY":181.5732,"EPHEMERIS_TYPE":0,"CLASSIFICATION_TYPE":"U","NORAD_CAT_ID":54578,"ELEMENT_SET_NO":999,"REV_AT_EPOCH":10518,"BSTAR":0.0077423675,"MEAN_MOTION_DOT":0.00175116,"MEAN_MOTION_DDOT":0}]
